OBJECT_NAME,OBJECT_ID,EPOCH,MEAN_MOTION,ECCENTRICITY,INCLINATION,RA_OF_ASC_NODE,ARG_OF_PERICENTER,MEAN_ANOMALY,EPHEMERIS_TYPE,CLASSIFICATION_TYPE,NORAD_CAT_ID,ELEMENT_SET_NO,REV_AT_EPOCH,BSTAR,MEAN_MOTION_DOT,MEAN_MOTION_DDOT
LAOSAT 1,2015-067A,2026-07-08T14:18:09.297216,1.00271988,.00023864,0.0413,192.3153,226.0067,211.2859,0,U,41034,999,3907,0,-.328E-5,0
TELSTAR 12V,2015-068A,2026-07-07T17:05:49.192224,1.00270650,.00022432,0.0185,70.6764,35.3256,61.1281,0,U,41036,999,3883,0,-.104E-5,0
ELEKTRO-L 2,2015-074A,2026-07-08T10:12:33.980256,1.00273098,.00006934,6.7437,70.2631,230.4230,124.3160,0,U,41105,999,3871,0,-.107E-5,0
COSMOS 2513,2015-075A,2026-07-08T14:04:52.234752,1.00279284,.000295,0.0624,103.9141,331.3663,142.7268,0,U,41121,999,3876,0,-.125E-5,0
EXPRESS-AMU1,2015-082A,2026-07-08T13:52:19.284672,1.00270401,.00023919,0.0189,37.8244,77.9340,54.9347,0,U,41191,999,3848,0,.17E-5,0
GAOFEN-4,2015-083A,2026-07-08T15:12:44.329824,1.00270751,.000433,0.4093,83.8679,118.0482,58.5592,0,U,41194,999,3874,0,-.32E-5,0
BELINTERSAT-1,2016-001A,2026-07-08T13:56:41.366112,1.00271803,.00018059,0.0219,94.4538,337.0405,115.6880,0,U,41238,999,3845,0,.122E-5,0
IRNSS-1E,2016-003A,2026-07-08T13:41:06.703008,1.00268726,.00192285,33.2793,59.4398,178.8549,5.2186,0,U,41241,999,3829,0,-.308E-5,0
EUTELSAT 9B,2016-005A,2026-07-08T08:36:32.529312,1.00275766,.00010739,0.0200,39.8303,73.5658,311.0759,0,U,41310,999,3832,0,.77E-6,0
SES-9,2016-013A,2026-07-08T09:04:52.312800,1.00271207,.0002255,0.0166,325.7562,137.2222,67.8728,0,U,41380,999,3765,0,-.33E-5,0
EUTELSAT 65 WEST A,2016-014A,2026-07-08T11:40:44.256576,1.00271956,.00021559,0.0718,310.1098,157.8529,288.4815,0,U,41382,999,3773,0,-.261E-5,0
IRNSS-1F,2016-015A,2026-07-07T22:27:18.230688,1.00277721,.0017391,5.3995,96.3106,183.6305,15.3161,0,U,41384,999,3787,0,.17E-5,0
BEIDOU-2 IGSO-6,2016-021A,2026-06-26T02:38:38.671584,1.00258926,.0057558,60.2385,37.9495,231.0163,137.2672,0,U,41434,999,3757,0,-.145E-5,0
IRNSS-1G,2016-027A,2026-07-07T16:04:25.078080,1.00274910,.00059755,5.2447,97.0006,9.1698,190.2027,0,U,41469,999,3738,0,-.321E-5,0
JCSAT-2B,2016-028A,2026-07-08T09:59:38.509152,1.00271102,.0000917,0.0189,30.8301,88.1262,111.3326,0,U,41471,999,3734,0,-.15E-5,0
THAICOM 8,2016-031A,2026-07-08T14:04:22.281600,1.00271075,.00031803,0.0626,40.0971,32.0518,143.9780,0,U,41552,999,3693,0,-.106E-5,0
INTELSAT 31 (IS-31),2016-035A,2026-07-08T13:14:52.875168,1.00270097,.00010154,0.0320,244.6568,40.0793,105.4395,0,U,41581,999,3689,0,-.136E-5,0
BEIDOU-2 G7,2016-037A,2026-07-08T14:13:28.907616,1.00265655,.00063304,1.7696,69.4677,6.3521,174.5396,0,U,41586,999,710,0,-.339E-5,0
ABS-2A (MONGOLSAT-1),2016-038A,2026-07-08T14:03:14.889600,1.00267512,.00012756,0.0193,22.8844,28.1416,161.0396,0,U,41588,999,3692,0,0,0
EUTELSAT 117 WEST B,2016-038B,2026-07-07T16:36:44.479872,1.00274900,.0000098,0.0043,194.6007,339.2111,244.0229,0,U,41589,999,3686,0,.3E-7,0
BRISAT,2016-039A,2026-07-07T16:10:24.503808,1.00268930,.00019975,0.0172,5.9287,103.9102,208.8981,0,U,41591,999,3681,0,0,0
ECHOSTAR 18,2016-039B,2026-07-08T04:51:12.691872,1.00271998,.00014153,0.0187,38.9865,79.7971,178.8156,0,U,41592,999,3683,0,-.267E-5,0
MUOS-5,2016-041A,2026-07-08T13:12:00.649728,1.00271938,.01991196,2.1598,302.0513,260.6275,176.6794,0,U,41622,999,3730,0,-.97E-6,0
TIANTONG-1 1,2016-048A,2026-07-08T14:10:51.659616,1.00272112,.0005117,3.8883,43.5668,55.3394,141.7539,0,U,41725,999,3648,0,-.306E-5,0
JCSAT-16,2016-050A,2026-07-08T04:06:58.266144,1.00269463,.00008505,0.0254,37.0561,93.2744,1.4935,0,U,41729,999,3628,0,0,0
USA 270,2016-052A,2026-07-08T10:52:44.133312,1.00271003,.0009267,4.2508,76.9127,101.4411,37.4334,0,U,41744,999,2834,0,-.339E-5,0
USA 271,2016-052B,2026-07-07T17:38:01.230144,1.00271212,.0010955,4.2217,76.9947,166.6184,44.5685,0,U,41745,999,2812,0,-.278E-5,0
INTELSAT 36 (IS-36),2016-053A,2026-07-07T19:12:15.204672,1.00285795,.00009753,0.0091,10.2892,27.8198,244.1989,0,U,41747,999,3616,0,-.12E-6,0
INSAT-3DR,2016-054A,2026-07-08T14:02:59.913888,1.00272129,.00105019,0.0524,89.2786,181.3331,300.6735,0,U,41752,999,3603,0,-.62E-6,0
GSAT-18,2016-060A,2026-07-08T14:03:07.402176,1.00271262,.00054423,0.0177,87.4994,349.6054,134.1818,0,U,41793,999,3574,0,-.62E-6,0
SKY MUSTER 2 (NBN1B),2016-060B,2026-07-08T14:39:51.575040,1.00270476,.00015048,0.0160,339.5131,132.6086,179.1966,0,U,41794,999,3573,0,-.23E-5,0
HIMAWARI-9,2016-064A,2026-07-08T05:48:52.165152,1.00270500,.00023667,0.0173,22.6609,155.1968,336.3220,0,U,41836,999,3542,0,0,0
