LAOSAT 1                
1 41034U 15067A   26189.59594094 -.00000328  00000+0  00000+0 0  9994
2 41034   0.0413 192.3153 0002386 226.0067 211.2859  1.00271988 39071
TELSTAR 12V             
1 41036U 15068A   26188.71237491 -.00000104  00000+0  00000+0 0  9997
2 41036   0.0185  70.6764 0002243  35.3256  61.1281  1.00270650 38837
ELEKTRO-L 2             
1 41105U 15074A   26189.42539329 -.00000107  00000+0  00000+0 0  9998
2 41105   6.7437  70.2631 0000693 230.4230 124.3160  1.00273098 38717
COSMOS 2513             
1 41121U 15075A   26189.58671568 -.00000125  00000+0  00000+0 0  9996
2 41121   0.0624 103.9141 0002950 331.3663 142.7268  1.00279284 38760
EXPRESS-AMU1            
1 41191U 15082A   26189.57800098  .00000170  00000+0  00000+0 0  9991
2 41191   0.0189  37.8244 0002391  77.9340  54.9347  1.00270401 38489
GAOFEN-4                
1 41194U 15083A   26189.63384641 -.00000320  00000+0  00000+0 0  9991
2 41194   0.4093  83.8679 0004330 118.0482  58.5592  1.00270751 38741
BELINTERSAT-1           
1 41238U 16001A   26189.58103433  .00000122  00000+0  00000+0 0  9992
2 41238   0.0219  94.4538 0001805 337.0405 115.6880  1.00271803 38452
IRNSS-1E                
1 41241U 16003A   26189.57021647 -.00000308  00000+0  00000+0 0  9990
2 41241  33.2793  59.4398 0019228 178.8549   5.2186  1.00268726 38299
EUTELSAT 9B             
1 41310U 16005A   26189.35870983  .00000077  00000+0  00000+0 0  9992
2 41310   0.0200  39.8303 0001073  73.5658 311.0759  1.00275766 38320
SES-9                   
1 41380U 16013A   26189.37838325 -.00000330  00000+0  00000+0 0  9997
2 41380   0.0166 325.7562 0002255 137.2222  67.8728  1.00271207 37653
EUTELSAT 65 WEST A      
1 41382U 16014A   26189.48662334 -.00000261  00000+0  00000+0 0  9990
2 41382   0.0718 310.1098 0002155 157.8529 288.4815  1.00271956 37735
IRNSS-1F                
1 41384U 16015A   26188.93562767  .00000170  00000+0  00000+0 0  9999
2 41384   5.3995  96.3106 0017391 183.6305  15.3161  1.00277721 37874
BEIDOU-2 IGSO-6         
1 41434U 16021A   26177.11016981 -.00000145  00000+0  00000+0 0  9995
2 41434  60.2385  37.9495 0057558 231.0163 137.2672  1.00258926 37578
IRNSS-1G                
1 41469U 16027A   26188.66973470 -.00000321  00000+0  00000+0 0  9992
2 41469   5.2447  97.0006 0005975   9.1698 190.2027  1.00274910 37385
JCSAT-2B                
1 41471U 16028A   26189.41641793 -.00000150  00000+0  00000+0 0  9990
2 41471   0.0189  30.8301 0000917  88.1262 111.3326  1.00271102 37344
THAICOM 8               
1 41552U 16031A   26189.58636900 -.00000106  00000+0  00000+0 0  9997
2 41552   0.0626  40.0971 0003180  32.0518 143.9780  1.00271075 36931
INTELSAT 31 (IS-31)     
1 41581U 16035A   26189.55200087 -.00000136  00000+0  00000+0 0  9996
2 41581   0.0320 244.6568 0001015  40.0793 105.4395  1.00270097 36890
BEIDOU-2 G7             
1 41586U 16037A   26189.59269569 -.00000339  00000+0  00000+0 0  9992
2 41586   1.7696  69.4677 0006330   6.3521 174.5396  1.00265655  7106
ABS-2A (MONGOLSAT-1)    
1 41588U 16038A   26189.58558900  .00000000  00000+0  00000+0 0  9998
2 41588   0.0193  22.8844 0001275  28.1416 161.0396  1.00267512 36926
EUTELSAT 117 WEST B     
1 41589U 16038B   26188.69218148  .00000003  00000+0  00000+0 0  9990
2 41589   0.0043 194.6007 0000098 339.2111 244.0229  1.00274900 36869
BRISAT                  
1 41591U 16039A   26188.67389472  .00000000  00000+0  00000+0 0  9998
2 41591   0.0172   5.9287 0001997 103.9102 208.8981  1.00268930 36818
ECHOSTAR 18             
1 41592U 16039B   26189.20223023 -.00000267  00000+0  00000+0 0  9994
2 41592   0.0187  38.9865 0001415  79.7971 178.8156  1.00271998 36832
MUOS-5                  
1 41622U 16041A   26189.55000752 -.00000097  00000+0  00000+0 0  9992
2 41622   2.1598 302.0513 0199119 260.6275 176.6794  1.00271938 37308
TIANTONG-1 1            
1 41725U 16048A   26189.59087569 -.00000306  00000+0  00000+0 0  9991
2 41725   3.8883  43.5668 0005117  55.3394 141.7539  1.00272112 36483
JCSAT-16                
1 41729U 16050A   26189.17150771  .00000000  00000+0  00000+0 0  9998
2 41729   0.0254  37.0561 0000850  93.2744   1.4935  1.00269463 36282
USA 270                 
1 41744U 16052A   26189.45328858 -.00000339  00000+0  00000+0 0  9997
2 41744   4.2508  76.9127 0009267 101.4411  37.4334  1.00271003 28344
USA 271                 
1 41745U 16052B   26188.73473646 -.00000278  00000+0  00000+0 0  9996
2 41745   4.2217  76.9947 0010955 166.6184  44.5685  1.00271212 28124
INTELSAT 36 (IS-36)     
1 41747U 16053A   26188.80017598 -.00000012  00000+0  00000+0 0  9993
2 41747   0.0091  10.2892 0000975  27.8198 244.1989  1.00285795 36163
INSAT-3DR               
1 41752U 16054A   26189.58541567 -.00000062  00000+0  00000+0 0  9999
2 41752   0.0524  89.2786 0010501 181.3331 300.6735  1.00272129 36039
GSAT-18                 
1 41793U 16060A   26189.58550234 -.00000062  00000+0  00000+0 0  9992
2 41793   0.0177  87.4994 0005442 349.6054 134.1818  1.00271262 35744
SKY MUSTER 2 (NBN1B)    
1 41794U 16060B   26189.61101360 -.00000230  00000+0  00000+0 0  9996
2 41794   0.0160 339.5131 0001504 132.6086 179.1966  1.00270476 35739
HIMAWARI-9              
1 41836U 16064A   26189.24227043  .00000000  00000+0  00000+0 0  9997
2 41836   0.0173  22.6609 0002366 155.1968 336.3220  1.00270500 35420
